[{"OBJECT_NAME":"NUSAT-44 (MARIA MITCHELL)","OBJECT_ID":"2024-043AA","EPOCH":"2026-03-09T22:12:18.524160","MEAN_MOTION":15.29764305,"ECCENTRICITY":0.0007331,"INCLINATION":97.5299,"RA_OF_ASC_NODE":207.7691,"ARG_OF_PERICENTER":214.9017,"MEAN_ANOMALY":145.1743,"EPHEMERIS_TYPE":0,"CLASSIFICATION_TYPE":"U","NORAD_CAT_ID":59122,"ELEMENT_SET_NO":999,"REV_AT_EPOCH":11209,"BSTAR":0.00061063193,"MEAN_MOTION_DOT":0.00017562,"MEAN_MOTION_DDOT":0},{"OBJECT_NAME":"STARLINK-33634","OBJECT_ID":"2025-063Q","EPOCH":"2026-03-09T23:05:12.246720","MEAN_MOTION":15.30210772,"ECCENTRICITY":0.00014251,"INCLINATION":53.1592,"RA_OF_ASC_NODE":51.0129,"ARG_OF_PERICENTER":99.1503,"MEAN_ANOMALY":260.9659,"EPHEMERIS_TYPE":0,"CLASSIFICATION_TYPE":"U","NORAD_CAT_ID":63377,"ELEMENT_SET_NO":999,"REV_AT_EPOCH":5480,"BSTAR":0.00094310296,"MEAN_MOTION_DOT":0.00027686,"MEAN_MOTION_DDOT":0}]
